CENTISPACE-1 OBJECT J   
1 68358U 26060J   26083.53383022  .00000024  00000+0  34174-4 0  9997
2 68358  54.9863  21.0605 0014020 303.9984  55.9683 14.75435649   288
CENTISPACE-1 OBJECT K   
1 68359U 26060K   26083.53374914  .00000024  00000+0  34277-4 0  9992
2 68359  54.9805  21.0571 0014566 304.0720  55.8896 14.75497722   287
