CCSDS_OMM_VERS = 2.0
CREATION_DATE  = 
ORIGINATOR     = 

OBJECT_NAME    = CENTISPACE-1 OBJECT J
OBJECT_ID      = 2026-060J
CENTER_NAME    = EARTH
REF_FRAME      = TEME
TIME_SYSTEM    = UTC
MEAN_ELEMENT_THEORY = SGP/SGP4

EPOCH          = 2026-03-24T12:48:42.931008
MEAN_MOTION    = 14.75435649
ECCENTRICITY   = .001402
INCLINATION    = 54.9863
RA_OF_ASC_NODE = 21.0605
ARG_OF_PERICENTER = 303.9984
MEAN_ANOMALY   = 55.9683

EPHEMERIS_TYPE = 0
CLASSIFICATION_TYPE = U
NORAD_CAT_ID   = 68358
ELEMENT_SET_NO = 999
REV_AT_EPOCH   = 28
BSTAR          = .34174E-4
MEAN_MOTION_DOT = .24E-6
MEAN_MOTION_DDOT = 0

CCSDS_OMM_VERS = 2.0
CREATION_DATE  = 
ORIGINATOR     = 

OBJECT_NAME    = CENTISPACE-1 OBJECT K
OBJECT_ID      = 2026-060K
CENTER_NAME    = EARTH
REF_FRAME      = TEME
TIME_SYSTEM    = UTC
MEAN_ELEMENT_THEORY = SGP/SGP4

EPOCH          = 2026-03-24T12:48:35.925696
MEAN_MOTION    = 14.75497722
ECCENTRICITY   = .0014566
INCLINATION    = 54.9805
RA_OF_ASC_NODE = 21.0571
ARG_OF_PERICENTER = 304.0720
MEAN_ANOMALY   = 55.8896

EPHEMERIS_TYPE = 0
CLASSIFICATION_TYPE = U
NORAD_CAT_ID   = 68359
ELEMENT_SET_NO = 999
REV_AT_EPOCH   = 28
BSTAR          = .34277E-4
MEAN_MOTION_DOT = .24E-6
MEAN_MOTION_DDOT = 0

